SCD 1                   
1 22490U 93009B   26199.56254374  .00000293  00000+0  29219-4 0  9991
2 22490  24.9707  13.8501 0042075 110.0045 302.2246 14.46129363765663
TECHSAT 1B (GO-32)      
1 25397U 98043D   26199.88440307  .00000001  00000+0  20468-4 0  9995
2 25397  99.0087 193.4453 0002292 109.7408 250.4017 14.24433757455849
SCD 2                   
1 25504U 98060A   26199.80439782  .00000255  00000+0  20366-4 0  9999
2 25504  24.9940 237.1785 0017002  97.0700  63.7948 14.45535401464904
DLR-TUBSAT              
1 25757U 99029B   26199.91398681  .00000004  00000+0  12826-4 0  9993
2 25757  98.6713 196.4648 0013024 252.4485 107.5287 14.52433681437854
TERRA                   
1 25994U 99068A   26199.92711742  .00000156  00000+0  40641-4 0  9991
2 25994  97.9438 248.2121 0003546 115.4264 290.2725 14.61125306414243
MAROC-TUBSAT            
1 27004U 01056D   26199.46578654 -.00000041  00000+0  64738-5 0  9995
2 27004  99.8101  16.9174 0020554  64.0317 325.6217 13.70263603230471
AQUA                    
1 27424U 02022A   26199.94608743  .00000337  00000+0  76941-4 0  9996
2 27424  98.4299 169.8680 0001256 101.7557 333.4935 14.62131534287917
SHIYAN-1 (SY-1)         
1 28220U 04012A   26199.94762729  .00006506  00000+0  19726-3 0  9998
2 28220  97.8677 280.0966 0004204 257.1866 102.8906 15.34506449215966
AURA                    
1 28376U 04026A   26199.89326444  .00000348  00000+0  80067-4 0  9994
2 28376  98.3432 156.6130 0001372  93.9929 266.1428 14.61370780170849
IRS-P5 (CARTOSAT-1)     
1 28649U 05017A   26199.81978111  .00000682  00000+0  74080-4 0  9993
2 28649  97.5306 221.4497 0001152  51.8210 308.3113 14.91122429148531
SINAH 1                 
1 28893U 05043D   26199.96839645  .00000125  00000+0  33226-4 0  9996
2 28893  98.2899 334.4842 0014661 171.8165 188.3279 14.64176809105170
RESURS-DK 1             
1 29228U 06021A   26199.89585017  .00000895  00000+0  56239-4 0  9992
2 29228  69.9303 257.4641 0007330 267.0322  93.0005 15.13326509107379
ARIRANG-2 (KOMPSAT-2)   
1 29268U 06031A   26200.00965670  .00000290  00000+0  62895-4 0  9994
2 29268  97.8315  22.9176 0013922 338.5180 178.6827 14.64677544 66137
LAPAN-TUBSAT            
1 29709U 07001A   26199.90289501  .00000778  00000+0  95498-4 0  9996
2 29709  98.1355 199.8442 0013666  83.0847 277.1922 14.85981000 55869
HAIYANG-1B              
1 31113U 07010A   26199.88849152  .00000036  00000+0  29333-4 0  9991
2 31113  98.3517 180.5073 0014759 105.7218 254.5595 14.31033902  5172
COSMO-SKYMED 1          
1 31598U 07023A   26199.88111481  .00001657  00000+0  14832-3 0  9996
2 31598  97.8851  32.0054 0001708  99.9562 260.1852 14.97231291 34534
TERRASAR-X              
1 31698U 07026A   26199.41329748  .00000174  00000+0  11467-4 0  9991
2 31698  97.4454 206.6756 0001859  78.4405 281.7038 15.19149093 57963
WORLDVIEW-1 (WV-1)      
1 32060U 07041A   26199.93059214  .00003111  00000+0  12915-3 0  9999
2 32060  97.3906 319.2305 0001892 190.5118 169.6080 15.24582364 47714
YAOGAN-3                
1 32289U 07055A   26199.94111579  .00000358  00000+0  41950-4 0  9993
2 32289  97.8139 229.5052 0001404  78.7590 281.3786 14.90887003 10605
COSMO-SKYMED 2          
1 32376U 07059A   26199.89100322  .00000157  00000+0  26246-4 0  9990
2 32376  97.8896  23.0305 0001451  93.9220 266.2159 14.82152094  6709
RADARSAT-2              
1 32382U 07061A   26199.94452588 -.00000180  00000+0 -52769-4 0  9997
2 32382  98.5783 206.4239 0001313  85.1507 274.9826 14.29983163970493
CARTOSAT-2A             
1 32783U 08021A   26199.90617376  .00000560  00000+0  81942-4 0  9998
2 32783  97.7611 247.5297 0012159  15.9887 344.1706 14.79280034983494
HUANJING 1A (HJ-1A)     
1 33320U 08041A   26199.92389855  .00001046  00000+0  13120-3 0  9990
2 33320  97.6703 184.5390 0020089  38.2434 322.0202 14.84055473963110
HUANJING 1B (HJ-1B)     
1 33321U 08041B   26199.97501865  .00000092  00000+0  17395-4 0  9992
2 33321  97.6538 187.6633 0037927  79.3715 281.1767 14.83367514963121
GEOEYE 1                
1 33331U 08042A   26199.91867956  .00000176  00000+0  42065-4 0  9999
2 33331  98.1325 273.4709 0003687 333.3517  26.7495 14.64651045954797
THEOS                   
1 33396U 08049A   26199.95575053 -.00000363  00000+0 -15031-3 0  9997
2 33396  98.5550 256.2051 0001125  89.9821 270.1485 14.20135664922478
COSMO-SKYMED 3          
1 33412U 08054A   26199.94709583  .00002485  00000+0  16931-3 0  9993
2 33412  97.8246  59.0422 0016052 153.8876 206.3164 15.07132936961729
YAOGAN-4                
1 33446U 08061A   26199.80653691  .00000458  00000+0  62562-4 0  9991
2 33446  97.9302 133.0847 0013530 333.4297  26.6222 14.83255048950353
GOSAT (IBUKI)           
1 33492U 09002A   26199.91124760  .00000284  00000+0  58498-4 0  9990
2 33492  98.0915 310.5988 0001122  89.3960 270.7373 14.67542148936111
DEIMOS-1                
1 35681U 09041A   26199.86124458  .00000154  00000+0  29770-4 0  9990
2 35681  97.7441 355.7217 0002805  87.5877 272.5654 14.75265381911558
